CCSDS_OMM_VERS = 2.0
CREATION_DATE  = 
ORIGINATOR     = 

OBJECT_NAME    = STARLINK-37041
OBJECT_ID      = 2026-044D
CENTER_NAME    = EARTH
REF_FRAME      = TEME
TIME_SYSTEM    = UTC
MEAN_ELEMENT_THEORY = SGP/SGP4

EPOCH          = 2026-03-20T02:00:03.000384
MEAN_MOTION    = 15.80831213
ECCENTRICITY   = .0001317
INCLINATION    = 97.2842
RA_OF_ASC_NODE = 39.7291
ARG_OF_PERICENTER = 86.6167
MEAN_ANOMALY   = 350.2408

EPHEMERIS_TYPE = 0
CLASSIFICATION_TYPE = U
NORAD_CAT_ID   = 68104
ELEMENT_SET_NO = 999
REV_AT_EPOCH   = 302
BSTAR          = -.30224E-3
MEAN_MOTION_DOT = -.57695E-3
MEAN_MOTION_DDOT = 0

CCSDS_OMM_VERS = 2.0
CREATION_DATE  = 
ORIGINATOR     = 

OBJECT_NAME    = STARLINK-37021
OBJECT_ID      = 2026-044E
CENTER_NAME    = EARTH
REF_FRAME      = TEME
TIME_SYSTEM    = UTC
MEAN_ELEMENT_THEORY = SGP/SGP4

EPOCH          = 2026-03-20T02:00:03.000384
MEAN_MOTION    = 15.80728123
ECCENTRICITY   = .0000994
INCLINATION    = 97.2838
RA_OF_ASC_NODE = 39.7304
ARG_OF_PERICENTER = 158.3020
MEAN_ANOMALY   = 282.8032

EPHEMERIS_TYPE = 0
CLASSIFICATION_TYPE = U
NORAD_CAT_ID   = 68105
ELEMENT_SET_NO = 999
REV_AT_EPOCH   = 302
BSTAR          = .55548E-3
MEAN_MOTION_DOT = .107141E-2
MEAN_MOTION_DDOT = 0

CCSDS_OMM_VERS = 2.0
CREATION_DATE  = 
ORIGINATOR     = 

OBJECT_NAME    = STARLINK-37024
OBJECT_ID      = 2026-044F
CENTER_NAME    = EARTH
REF_FRAME      = TEME
TIME_SYSTEM    = UTC
MEAN_ELEMENT_THEORY = SGP/SGP4

EPOCH          = 2026-03-20T02:00:03.000384
MEAN_MOTION    = 15.80786343
ECCENTRICITY   = .0001582
INCLINATION    = 97.2840
RA_OF_ASC_NODE = 39.7324
ARG_OF_PERICENTER = 96.5260
MEAN_ANOMALY   = 348.8812

EPHEMERIS_TYPE = 0
CLASSIFICATION_TYPE = U
NORAD_CAT_ID   = 68106
ELEMENT_SET_NO = 999
REV_AT_EPOCH   = 302
BSTAR          = .32518E-3
MEAN_MOTION_DOT = .6251E-3
MEAN_MOTION_DDOT = 0

CCSDS_OMM_VERS = 2.0
CREATION_DATE  = 
ORIGINATOR     = 

OBJECT_NAME    = STARLINK-37005
OBJECT_ID      = 2026-044G
CENTER_NAME    = EARTH
REF_FRAME      = TEME
TIME_SYSTEM    = UTC
MEAN_ELEMENT_THEORY = SGP/SGP4

EPOCH          = 2026-03-20T02:00:03.000384
MEAN_MOTION    = 15.80797440
ECCENTRICITY   = .0001122
INCLINATION    = 97.2839
RA_OF_ASC_NODE = 39.7272
ARG_OF_PERICENTER = 86.1850
MEAN_ANOMALY   = 346.4077

EPHEMERIS_TYPE = 0
CLASSIFICATION_TYPE = U
NORAD_CAT_ID   = 68107
ELEMENT_SET_NO = 999
REV_AT_EPOCH   = 302
BSTAR          = .10511E-3
MEAN_MOTION_DOT = .20021E-3
MEAN_MOTION_DDOT = 0

CCSDS_OMM_VERS = 2.0
CREATION_DATE  = 
ORIGINATOR     = 

OBJECT_NAME    = STARLINK-37017
OBJECT_ID      = 2026-044H
CENTER_NAME    = EARTH
REF_FRAME      = TEME
TIME_SYSTEM    = UTC
MEAN_ELEMENT_THEORY = SGP/SGP4

EPOCH          = 2026-03-20T02:00:03.000384
MEAN_MOTION    = 15.80747198
ECCENTRICITY   = .0001496
INCLINATION    = 97.2841
RA_OF_ASC_NODE = 39.7347
ARG_OF_PERICENTER = 93.0107
MEAN_ANOMALY   = 356.6632

EPHEMERIS_TYPE = 0
CLASSIFICATION_TYPE = U
NORAD_CAT_ID   = 68108
ELEMENT_SET_NO = 999
REV_AT_EPOCH   = 302
BSTAR          = .57817E-3
MEAN_MOTION_DOT = .111683E-2
MEAN_MOTION_DDOT = 0

CCSDS_OMM_VERS = 2.0
CREATION_DATE  = 
ORIGINATOR     = 

OBJECT_NAME    = STARLINK-36833
OBJECT_ID      = 2026-044J
CENTER_NAME    = EARTH
REF_FRAME      = TEME
TIME_SYSTEM    = UTC
MEAN_ELEMENT_THEORY = SGP/SGP4

EPOCH          = 2026-03-20T02:00:03.000384
MEAN_MOTION    = 15.80796289
ECCENTRICITY   = .0001291
INCLINATION    = 97.2834
RA_OF_ASC_NODE = 39.7374
ARG_OF_PERICENTER = 106.6794
MEAN_ANOMALY   = 351.5729

EPHEMERIS_TYPE = 0
CLASSIFICATION_TYPE = U
NORAD_CAT_ID   = 68109
ELEMENT_SET_NO = 999
REV_AT_EPOCH   = 307
BSTAR          = .16389E-4
MEAN_MOTION_DOT = .2996E-4
MEAN_MOTION_DDOT = 0

CCSDS_OMM_VERS = 2.0
CREATION_DATE  = 
ORIGINATOR     = 

OBJECT_NAME    = STARLINK-36830
OBJECT_ID      = 2026-044K
CENTER_NAME    = EARTH
REF_FRAME      = TEME
TIME_SYSTEM    = UTC
MEAN_ELEMENT_THEORY = SGP/SGP4

EPOCH          = 2026-03-20T02:00:03.000384
MEAN_MOTION    = 15.80786367
ECCENTRICITY   = .0000682
INCLINATION    = 97.2838
RA_OF_ASC_NODE = 39.7357
ARG_OF_PERICENTER = 126.0479
MEAN_ANOMALY   = 327.9170

EPHEMERIS_TYPE = 0
CLASSIFICATION_TYPE = U
NORAD_CAT_ID   = 68110
ELEMENT_SET_NO = 999
REV_AT_EPOCH   = 307
BSTAR          = .23666E-3
MEAN_MOTION_DOT = .45363E-3
MEAN_MOTION_DDOT = 0

CCSDS_OMM_VERS = 2.0
CREATION_DATE  = 
ORIGINATOR     = 

OBJECT_NAME    = STARLINK-36791
OBJECT_ID      = 2026-044L
CENTER_NAME    = EARTH
REF_FRAME      = TEME
TIME_SYSTEM    = UTC
MEAN_ELEMENT_THEORY = SGP/SGP4

EPOCH          = 2026-03-20T02:00:03.000384
MEAN_MOTION    = 15.80749790
ECCENTRICITY   = .0001422
INCLINATION    = 97.2837
RA_OF_ASC_NODE = 39.7397
ARG_OF_PERICENTER = 121.9156
MEAN_ANOMALY   = 340.6046

EPHEMERIS_TYPE = 0
CLASSIFICATION_TYPE = U
NORAD_CAT_ID   = 68111
ELEMENT_SET_NO = 999
REV_AT_EPOCH   = 302
BSTAR          = .53972E-3
MEAN_MOTION_DOT = .104167E-2
MEAN_MOTION_DDOT = 0

CCSDS_OMM_VERS = 2.0
CREATION_DATE  = 
ORIGINATOR     = 

OBJECT_NAME    = STARLINK-36893
OBJECT_ID      = 2026-044M
CENTER_NAME    = EARTH
REF_FRAME      = TEME
TIME_SYSTEM    = UTC
MEAN_ELEMENT_THEORY = SGP/SGP4

EPOCH          = 2026-03-20T02:00:03.000384
MEAN_MOTION    = 15.80796446
ECCENTRICITY   = .0001085
INCLINATION    = 97.2834
RA_OF_ASC_NODE = 39.7408
ARG_OF_PERICENTER = 80.7576
MEAN_ANOMALY   = 26.0370

EPHEMERIS_TYPE = 0
CLASSIFICATION_TYPE = U
NORAD_CAT_ID   = 68112
ELEMENT_SET_NO = 999
REV_AT_EPOCH   = 307
BSTAR          = .54301E-4
MEAN_MOTION_DOT = .10262E-3
MEAN_MOTION_DDOT = 0

CCSDS_OMM_VERS = 2.0
CREATION_DATE  = 
ORIGINATOR     = 

OBJECT_NAME    = STARLINK-36937
OBJECT_ID      = 2026-044N
CENTER_NAME    = EARTH
REF_FRAME      = TEME
TIME_SYSTEM    = UTC
MEAN_ELEMENT_THEORY = SGP/SGP4

EPOCH          = 2026-03-20T02:00:03.000384
MEAN_MOTION    = 15.80863990
ECCENTRICITY   = .0000774
INCLINATION    = 97.2834
RA_OF_ASC_NODE = 39.7444
ARG_OF_PERICENTER = 122.0915
MEAN_ANOMALY   = 353.2218

EPHEMERIS_TYPE = 0
CLASSIFICATION_TYPE = U
NORAD_CAT_ID   = 68113
ELEMENT_SET_NO = 999
REV_AT_EPOCH   = 302
BSTAR          = -.55182E-3
MEAN_MOTION_DOT = -.104806E-2
MEAN_MOTION_DDOT = 0

CCSDS_OMM_VERS = 2.0
CREATION_DATE  = 
ORIGINATOR     = 

OBJECT_NAME    = STARLINK-36229
OBJECT_ID      = 2026-044P
CENTER_NAME    = EARTH
REF_FRAME      = TEME
TIME_SYSTEM    = UTC
MEAN_ELEMENT_THEORY = SGP/SGP4

EPOCH          = 2026-03-20T02:00:03.000384
MEAN_MOTION    = 15.80826011
ECCENTRICITY   = .0000898
INCLINATION    = 97.2831
RA_OF_ASC_NODE = 39.7416
ARG_OF_PERICENTER = 111.6811
MEAN_ANOMALY   = 359.3799

EPHEMERIS_TYPE = 0
CLASSIFICATION_TYPE = U
NORAD_CAT_ID   = 68114
ELEMENT_SET_NO = 999
REV_AT_EPOCH   = 307
BSTAR          = -.20511E-3
MEAN_MOTION_DOT = -.3927E-3
MEAN_MOTION_DDOT = 0

CCSDS_OMM_VERS = 2.0
CREATION_DATE  = 
ORIGINATOR     = 

OBJECT_NAME    = STARLINK-36392
OBJECT_ID      = 2026-044Q
CENTER_NAME    = EARTH
REF_FRAME      = TEME
TIME_SYSTEM    = UTC
MEAN_ELEMENT_THEORY = SGP/SGP4

EPOCH          = 2026-03-20T02:00:03.000384
MEAN_MOTION    = 15.80907106
ECCENTRICITY   = .0001091
INCLINATION    = 97.2832
RA_OF_ASC_NODE = 39.7461
ARG_OF_PERICENTER = 98.6452
MEAN_ANOMALY   = 20.9328

EPHEMERIS_TYPE = 0
CLASSIFICATION_TYPE = U
NORAD_CAT_ID   = 68115
ELEMENT_SET_NO = 999
REV_AT_EPOCH   = 307
BSTAR          = -.99477E-3
MEAN_MOTION_DOT = -.187431E-2
MEAN_MOTION_DDOT = 0

