STARLINK-37041          
1 68104U 26044D   26079.08336806 -.00057695  00000+0 -30224-3 0  9990
2 68104  97.2842  39.7291 0001317  86.6167 350.2408 15.80831213  3029
STARLINK-37021          
1 68105U 26044E   26079.08336806  .00107141  00000+0  55548-3 0  9997
2 68105  97.2838  39.7304 0000994 158.3020 282.8032 15.80728123  3023
STARLINK-37024          
1 68106U 26044F   26079.08336806  .00062510  00000+0  32518-3 0  9990
2 68106  97.2840  39.7324 0001582  96.5260 348.8812 15.80786343  3029
STARLINK-37005          
1 68107U 26044G   26079.08336806  .00020021  00000+0  10511-3 0  9991
2 68107  97.2839  39.7272 0001122  86.1850 346.4077 15.80797440  3027
STARLINK-37017          
1 68108U 26044H   26079.08336806  .00111683  00000+0  57817-3 0  9997
2 68108  97.2841  39.7347 0001496  93.0107 356.6632 15.80747198  3025
STARLINK-36833          
1 68109U 26044J   26079.08336806  .00002996  00000+0  16389-4 0  9994
2 68109  97.2834  39.7374 0001291 106.6794 351.5729 15.80796289  3075
STARLINK-36830          
1 68110U 26044K   26079.08336806  .00045363  00000+0  23666-3 0  9996
2 68110  97.2838  39.7357 0000682 126.0479 327.9170 15.80786367  3074
STARLINK-36791          
1 68111U 26044L   26079.08336806  .00104167  00000+0  53972-3 0  9998
2 68111  97.2837  39.7397 0001422 121.9156 340.6046 15.80749790  3025
STARLINK-36893          
1 68112U 26044M   26079.08336806  .00010262  00000+0  54301-4 0  9999
2 68112  97.2834  39.7408 0001085  80.7576  26.0370 15.80796446  3079
STARLINK-36937          
1 68113U 26044N   26079.08336806 -.00104806  00000+0 -55182-3 0  9997
2 68113  97.2834  39.7444 0000774 122.0915 353.2218 15.80863990  3021
STARLINK-36229          
1 68114U 26044P   26079.08336806 -.00039270  00000+0 -20511-3 0  9998
2 68114  97.2831  39.7416 0000898 111.6811 359.3799 15.80826011  3073
STARLINK-36392          
1 68115U 26044Q   26079.08336806 -.00187431  00000+0 -99477-3 0  9999
2 68115  97.2832  39.7461 0001091  98.6452  20.9328 15.80907106  3070
